{
  "type": "FeatureCollection",
  "features": [
    {
      "type": "Feature",
      "properties": {
        "norad_id": 28051,
        "name": "IRS-P6 (RESOURCESAT-1)",
        "group": "resource",
        "lat": 51.31282475448207,
        "lon": -149.64278028902518,
        "alt_km": 755.0752395022355,
        "timestamp": "2025-12-05T04:52:14.978296+00:00",
        "meta_object_name": "IRS-P6 (RESOURCESAT-1)",
        "meta_object_id": "2003-046A",
        "meta_epoch": "2025-12-04T18:44:32.142912",
        "meta_mean_motion": 14.36069129,
        "meta_eccentricity": 0.0063734,
        "meta_inclination": 98.2189,
        "meta_ra_of_asc_node": 19.5565,
        "meta_arg_of_pericenter": 204.6423,
        "meta_mean_anomaly": 263.4016,
        "meta_ephemeris_type": 0,
        "meta_classification_type": "U",
        "meta_norad_cat_id": 28051,
        "meta_element_set_no": 999,
        "meta_rev_at_epoch": 15262,
        "meta_bstar": 0.00015852,
        "meta_mean_motion_dot": 4.31e-06,
        "meta_mean_motion_ddot": 0,
        "tle_line1": "1 28051U 03046A   25338.78092758  .00000431  00000+0  15852-3 0  9997",
        "tle_line2": "2 28051  98.2189  19.5565 0063734 204.6423 263.4016 14.36069129152629"
      },
      "geometry": {
        "type": "Point",
        "coordinates": [
          -149.64278028902518,
          51.31282475448207
        ]
      }
    },
    {
      "type": "Feature",
      "properties": {
        "norad_id": 28220,
        "name": "SHIYAN-1 (SY-1)",
        "group": "resource",
        "lat": 31.42229710934974,
        "lon": 35.43527697267559,
        "alt_km": 477.22667092514257,
        "timestamp": "2025-12-05T04:52:14.978324+00:00",
        "meta_object_name": "SHIYAN-1 (SY-1)",
        "meta_object_id": "2004-012A",
        "meta_epoch": "2025-12-04T16:09:27.642240",
        "meta_mean_motion": 15.27825198,
        "meta_eccentricity": 0.000617,
        "meta_inclination": 97.8951,
        "meta_ra_of_asc_node": 39.7379,
        "meta_arg_of_pericenter": 355.3521,
        "meta_mean_anomaly": 4.7659,
        "meta_ephemeris_type": 0,
        "meta_classification_type": "U",
        "meta_norad_cat_id": 28220,
        "meta_element_set_no": 999,
        "meta_rev_at_epoch": 18133,
        "meta_bstar": 0.00097333,
        "meta_mean_motion_dot": 0.00026446,
        "meta_mean_motion_ddot": 0,
        "tle_line1": "1 28220U 04012A   25338.67323660  .00026446  00000+0  97333-3 0  9994",
        "tle_line2": "2 28220  97.8951  39.7379 0006170 355.3521   4.7659 15.27825198181336"
      },
      "geometry": {
        "type": "Point",
        "coordinates": [
          35.43527697267559,
          31.42229710934974
        ]
      }
    },
    {
      "type": "Feature",
      "properties": {
        "norad_id": 28376,
        "name": "AURA",
        "group": "resource",
        "lat": 78.28481141718085,
        "lon": -115.47073097927864,
        "alt_km": 682.089429317838,
        "timestamp": "2025-12-05T04:52:14.978335+00:00",
        "meta_object_name": "AURA",
        "meta_object_id": "2004-026A",
        "meta_epoch": "2025-12-04T16:59:30.354144",
        "meta_mean_motion": 14.60917064,
        "meta_eccentricity": 0.0001135,
        "meta_inclination": 98.3171,
        "meta_ra_of_asc_node": 288.8977,
        "meta_arg_of_pericenter": 92.7015,
        "meta_mean_anomaly": 267.4315,
        "meta_ephemeris_type": 0,
        "meta_classification_type": "U",
        "meta_norad_cat_id": 28376,
        "meta_element_set_no": 999,
        "meta_rev_at_epoch": 13781,
        "meta_bstar": 0.0005147,
        "meta_mean_motion_dot": 2.472e-05,
        "meta_mean_motion_ddot": 0,
        "tle_line1": "1 28376U 04026A   25338.70799021  .00002472  00000+0  51470-3 0  9998",
        "tle_line2": "2 28376  98.3171 288.8977 0001135  92.7015 267.4315 14.60917064137816"
      },
      "geometry": {
        "type": "Point",
        "coordinates": [
          -115.47073097927864,
          78.28481141718085
        ]
      }
    },
    {
      "type": "Feature",
      "properties": {
        "norad_id": 28649,
        "name": "IRS-P5 (CARTOSAT-1)",
        "group": "resource",
        "lat": -36.961373626371575,
        "lon": -179.776933333876,
        "alt_km": 604.3639682995463,
        "timestamp": "2025-12-05T04:52:14.978346+00:00",
        "meta_object_name": "IRS-P5 (CARTOSAT-1)",
        "meta_object_id": "2005-017A",
        "meta_epoch": "2025-12-04T15:00:30.138912",
        "meta_mean_motion": 14.90362164,
        "meta_eccentricity": 0.0001718,
        "meta_inclination": 97.5498,
        "meta_ra_of_asc_node": 5.3988,
        "meta_arg_of_pericenter": 52.3867,
        "meta_mean_anomaly": 307.7507,
        "meta_ephemeris_type": 0,
        "meta_classification_type": "U",
        "meta_norad_cat_id": 28649,
        "meta_element_set_no": 999,
        "meta_rev_at_epoch": 11483,
        "meta_bstar": 0.00042194,
        "meta_mean_motion_dot": 4.054e-05,
        "meta_mean_motion_ddot": 0,
        "tle_line1": "1 28649U 05017A   25338.62534883  .00004054  00000+0  42194-3 0  9997",
        "tle_line2": "2 28649  97.5498   5.3988 0001718  52.3867 307.7507 14.90362164114836"
      },
      "geometry": {
        "type": "Point",
        "coordinates": [
          -179.776933333876,
          -36.961373626371575
        ]
      }
    },
    {
      "type": "Feature",
      "properties": {
        "norad_id": 28893,
        "name": "SINAH 1",
        "group": "resource",
        "lat": -26.185826539395446,
        "lon": -76.3563334378313,
        "alt_km": 678.9308558137436,
        "timestamp": "2025-12-05T04:52:14.978359+00:00",
        "meta_object_name": "SINAH 1",
        "meta_object_id": "2005-043D",
        "meta_epoch": "2025-12-04T16:26:57.181056",
        "meta_mean_motion": 14.63948386,
        "meta_eccentricity": 0.0014902,
        "meta_inclination": 98.2601,
        "meta_ra_of_asc_node": 107.2214,
        "meta_arg_of_pericenter": 161.1396,
        "meta_mean_anomaly": 199.0361,
        "meta_ephemeris_type": 0,
        "meta_classification_type": "U",
        "meta_norad_cat_id": 28893,
        "meta_element_set_no": 999,
        "meta_rev_at_epoch": 7206,
        "meta_bstar": 0.00019552,
        "meta_mean_motion_dot": 9.76e-06,
        "meta_mean_motion_ddot": 0,
        "tle_line1": "1 28893U 05043D   25338.68538404  .00000976  00000+0  19552-3 0  9997",
        "tle_line2": "2 28893  98.2601 107.2214 0014902 161.1396 199.0361 14.63948386 72064"
      },
      "geometry": {
        "type": "Point",
        "coordinates": [
          -76.3563334378313,
          -26.185826539395446
        ]
      }
    },
    {
      "type": "Feature",
      "properties": {
        "norad_id": 29079,
        "name": "EROS B",
        "group": "resource",
        "lat": -49.37427271595515,
        "lon": 104.08727553918479,
        "alt_km": 378.4612956991914,
        "timestamp": "2025-12-05T04:52:14.978374+00:00",
        "meta_object_name": "EROS B",
        "meta_object_id": "2006-014A",
        "meta_epoch": "2025-12-04T18:20:38.536224",
        "meta_mean_motion": 15.65226036,
        "meta_eccentricity": 0.0002064,
        "meta_inclination": 97.3494,
        "meta_ra_of_asc_node": 94.9764,
        "meta_arg_of_pericenter": 242.6476,
        "meta_mean_anomaly": 117.4573,
        "meta_ephemeris_type": 0,
        "meta_classification_type": "U",
        "meta_norad_cat_id": 29079,
        "meta_element_set_no": 999,
        "meta_rev_at_epoch": 8955,
        "meta_bstar": 0.0022255,
        "meta_mean_motion_dot": 0.00225771,
        "meta_mean_motion_ddot": 0,
        "tle_line1": "1 29079U 06014A   25338.76433491  .00225771  00000+0  22255-2 0  9997",
        "tle_line2": "2 29079  97.3494  94.9764 0002064 242.6476 117.4573 15.65226036 89558"
      },
      "geometry": {
        "type": "Point",
        "coordinates": [
          104.08727553918479,
          -49.37427271595515
        ]
      }
    },
    {
      "type": "Feature",
      "properties": {
        "norad_id": 29228,
        "name": "RESURS-DK 1",
        "group": "resource",
        "lat": -62.47122791860317,
        "lon": -14.15156510829653,
        "alt_km": 531.1226958579191,
        "timestamp": "2025-12-05T04:52:14.978391+00:00",
        "meta_object_name": "RESURS-DK 1",
        "meta_object_id": "2006-021A",
        "meta_epoch": "2025-12-04T16:39:05.537376",
        "meta_mean_motion": 15.12089965,
        "meta_eccentricity": 0.00078,
        "meta_inclination": 69.9333,
        "meta_ra_of_asc_node": 122.6288,
        "meta_arg_of_pericenter": 264.441,
        "meta_mean_anomaly": 95.5866,
        "meta_ephemeris_type": 0,
        "meta_classification_type": "U",
        "meta_norad_cat_id": 29228,
        "meta_element_set_no": 999,
        "meta_rev_at_epoch": 7316,
        "meta_bstar": 0.00035997,
        "meta_mean_motion_dot": 6.111e-05,
        "meta_mean_motion_ddot": 0,
        "tle_line1": "1 29228U 06021A   25338.69381409  .00006111  00000+0  35997-3 0  9997",
        "tle_line2": "2 29228  69.9333 122.6288 0007800 264.4410  95.5866 15.12089965 73165"
      },
      "geometry": {
        "type": "Point",
        "coordinates": [
          -14.15156510829653,
          -62.47122791860317
        ]
      }
    }
  ]
}